STARLINK-6117           
1 56130U 23046AQ  25133.96506885  .00001031  00000+0  91398-4 0  9999
2 56130  43.0055 334.7601 0001263 267.3827  92.6871 15.02537549117121
STARLINK-6120           
1 56131U 23046AR  25134.54893711 -.00000260  00000+0 -41985-5 0  9995
2 56131  43.0040 331.3961 0001183 270.7584  89.3123 15.02537398117212
STARLINK-6071           
1 56132U 23046AS  25134.89242596  .00000520  00000+0  53590-4 0  9994
2 56132  43.0054 329.6786 0001409 258.4089 101.6595 15.02534389117800
STARLINK-5566           
1 56133U 23046AT  25134.27303463 -.00000249  00000+0 -33851-5 0  9997
2 56133  43.0050 332.7672 0001464 260.5512  99.5165 15.02538028117174
STARLINK-5564           
1 56134U 23046AU  25134.55670588  .00000312  00000+0  38157-4 0  9996
2 56134  43.0033 331.4600 0001017 271.4819  88.5907 15.02537352117214
STARLINK-5489           
1 56136U 23046AW  25133.88748956  .00000464  00000+0  49456-4 0  9990
2 56136  43.0044 335.0330 0001219 270.6257  89.4446 15.02534605117114
STARLINK-5090           
1 56137U 23046AX  25134.59654748  .00000942  00000+0  84785-4 0  9990
2 56137  43.0031 330.8899 0001071 261.5240  98.5481 15.02534811117761
STARLINK-4774           
1 56138U 23046AY  25134.54560493  .00000345  00000+0  40633-4 0  9990
2 56138  43.0051 331.3729 0001264 263.3348  96.7350 15.02538330117210
STARLINK-5375           
1 56140U 23046BA  25134.27747668 -.00000011  00000+0  14285-4 0  9999
2 56140  43.0061 332.8035 0001310 264.5238  95.5455 15.02539063117175
STARLINK-5377           
1 56141U 23046BB  25134.52895724 -.00000234  00000+0 -22130-5 0  9992
2 56141  43.0036 331.2444 0001247 273.4484  86.6216 15.02536779117218
STARLINK-5376           
1 56142U 23046BC  25134.27414707  .00000452  00000+0  48569-4 0  9996
2 56142  43.0040 332.7715 0001235 269.2299  90.8402 15.02535138117172
STARLINK-5016           
1 56143U 23046BD  25134.85579772  .00000117  00000+0  23708-4 0  9991
2 56143  43.0057 329.3979 0001262 266.0859  93.9839 15.02534785117807
STARLINK-5374           
1 56144U 23046BE  25134.27081904 -.00000348  00000+0 -10664-4 0  9998
2 56144  43.0044 332.7503 0001275 269.7185  90.3511 15.02536407117172
STARLINK-5111           
1 56146U 23046BG  25134.25971708 -.00000553  00000+0 -25864-4 0  9994
2 56146  43.0054 332.6702 0001297 263.2163  96.8532 15.02535786117177
STARLINK-5140           
1 56147U 23046BH  25134.48333712 -.00004413  00000+0 -31172-3 0  9994
2 56147  43.0028 293.5332 0000978 262.3450  97.7281 15.02545516117642
STARLINK-5089           
1 56148U 23046BJ  25134.42018998  .00000067  00000+0  20061-4 0  9990
2 56148  43.0034 293.9241 0001160 276.0376  84.0334 15.02536933118176
STARLINK-30107          
1 56287U 23056B   25134.75033555  .00000742  00000+0  69962-4 0  9990
2 56287  43.0044  34.7912 0001017 275.4338  84.6389 15.02538490114452
STARLINK-30106          
1 56288U 23056C   25134.45112600  .00001553  00000+0  13002-3 0  9991
2 56288  43.0055  36.0095 0000796 239.3012 120.7752 15.02539448114419
STARLINK-30095          
1 56289U 23056D   25134.34863916  .00000440  00000+0  47665-4 0  9990
2 56289  43.0051  10.8020 0001091 245.1145 114.9584 15.02534642115291
STARLINK-30103          
1 56290U 23056E   25134.44779728  .00000270  00000+0  35018-4 0  9990
2 56290  43.0063  35.9860 0000974 262.5859  97.4873 15.02542911115014
STARLINK-30113          
1 56291U 23056F   25134.45445190  .00000466  00000+0  49582-4 0  9993
2 56291  43.0064  36.0272 0001371 268.2516  91.8169 15.02544763115013
STARLINK-30098          
1 56292U 23056G   25134.71038566  .00000183  00000+0  28634-4 0  9999
2 56292  43.0049  34.5002 0000511 250.4803 109.5985 15.02534568114450
STARLINK-30090          
1 56293U 23056H   25134.43792277  .00000334  00000+0  39778-4 0  9994
2 56293  43.0068  36.7455 0001221 264.5275  95.5428 15.02538821115000
STARLINK-30049          
1 56294U 23056J   25134.43460129  .00001434  00000+0  12117-3 0  9992
2 56294  43.0043  36.6598 0001046 274.1239  85.9484 15.02537464115000
STARLINK-30083          
1 56295U 23056K   25134.36195832 -.00000325  00000+0 -90247-5 0  9993
2 56295  43.0052  10.8863 0001044 274.6914  85.3809 15.02533183115293
STARLINK-30089          
1 56296U 23056L   25134.62811486 -.00001838  00000+0 -12102-3 0  9995
2 56296  43.0042 356.4035 0001128 269.8232  90.2481 15.02527402114887
STARLINK-30086          
1 56297U 23056M   25134.41459997  .00001528  00000+0  12815-3 0  9993
2 56297  43.0042  36.5097 0001167 271.9133  88.1576 15.02544827115005
STARLINK-30109          
1 56298U 23056N   25134.42127278 -.00000880  00000+0 -50086-4 0  9994
2 56298  43.0048  36.5644 0000884 275.4756  84.5986 15.02541145115066
STARLINK-30108          
1 56299U 23056P   25134.38836209  .00000946  00000+0  85080-4 0  9994
2 56299  43.0026  24.1862 0000981 341.2378  18.8428 15.02540651115206
STARLINK-30104          
1 56300U 23056Q   25134.44114195  .00000286  00000+0  36250-4 0  9999
2 56300  43.0037  35.9352 0000951 266.6353  93.4380 15.02537076115073
STARLINK-30101          
1 56301U 23056R   25134.00576488  .00001105  00000+0  96880-4 0  9995
2 56301  43.0044  38.6683 0001255 270.3281  89.7417 15.02531040115006
STARLINK-30111          
1 56302U 23056S   25134.13205283  .00000039  00000+0  17933-4 0  9999
2 56302  43.0047  37.8336 0000751 271.5752  88.5004 15.02534157115025
STARLINK-30099          
1 56304U 23056U   25134.72701403  .00001095  00000+0  96096-4 0  9991
2 56304  43.0056  34.5464 0001202 263.2935  96.7770 15.02537535114456
STARLINK-30094          
1 56305U 23056V   25134.12538970 -.00000223  00000+0 -14532-5 0  9993
2 56305  43.0044  37.7584 0001213 274.1380  85.9323 15.02533242115028
STARLINK-30112          
1 56306U 23056W   25134.73365722  .00001989  00000+0  16216-3 0  9991
2 56306  43.0051  34.6025 0001252 251.1277 108.9429 15.02554651114463
STARLINK-6038           
1 56317U 23058A   25134.54123587 -.00000222  00000+0 -12680-4 0  9998
2 56317  97.6552 136.5717 0003733  73.2908 286.8726 15.01260860112892
STARLINK-5954           
1 56318U 23058B   25134.53753179 -.00000180  00000+0 -93970-5 0  9999
2 56318  97.6545 136.5755 0003879  64.3892 295.7732 15.01259775112890
STARLINK-6039           
1 56319U 23058C   25134.66898586 -.00000253  00000+0 -15102-4 0  9997
2 56319  97.6544 136.7085 0003451  64.5794 295.5787 15.01258259112778
STARLINK-5988           
1 56320U 23058D   25134.54147206 -.00000329  00000+0 -21044-4 0  9998
2 56320  97.6543 136.5714 0003618  80.9936 279.1697 15.01262012112906
STARLINK-5876           
1 56321U 23058E   25134.59676769 -.00091475  00000+0 -72150-2 0  9999
2 56321  97.6514 136.6454 0001488  41.2594 318.8742 15.01232875112748
STARLINK-6033           
1 56322U 23058F   25134.53938507 -.00000079  00000+0 -15842-5 0  9993
2 56322  97.6547 136.5738 0003876  81.1667 278.9996 15.01259452112899
STARLINK-6035           
1 56323U 23058G   25134.59862110 -.00000171  00000+0 -87442-5 0  9994
2 56323  97.6536 136.6461 0002229 101.0479 259.0996 15.01249986112763
STARLINK-6034           
1 56324U 23058H   25134.60048087  .00000165  00000+0  17434-4 0  9990
2 56324  97.6539 136.6442 0003694  80.4053 279.7588 15.01262136112769
STARLINK-5981           
1 56325U 23058J   25134.59123576  .00001907  00000+0  15305-3 0  9995
2 56325  97.6540 136.6497 0002966  86.7350 273.4213 15.01252827112764
STARLINK-5980           
1 56326U 23058K   25134.53407346  .00000091  00000+0  11667-4 0  9991
2 56326  97.6539 136.5782 0004289  74.0733 286.0963 15.01261439112899
STARLINK-5997           
1 56327U 23058L   25134.58591061  .00000382  00000+0  34320-4 0  9999
2 56327  97.6545 136.6548 0001419 104.8015 255.3366 15.01256891112763
STARLINK-5992           
1 56328U 23058M   25134.52644878 -.00003340  00000+0 -25576-3 0  9990
2 56328  97.6534 136.5823 0002136  93.4537 266.6932 15.01232554113244
STARLINK-5984           
1 56329U 23058N   25134.58936752  .00000100  00000+0  12357-4 0  9995
2 56329  97.6541 136.6516 0002387  89.1248 271.0250 15.01258109112765
STARLINK-5991           
1 56331U 23058Q   25134.58382288  .00000058  00000+0  91398-5 0  9992
2 56331  97.6546 136.6571 0001189 120.4150 239.7192 15.01256051113259
STARLINK-5093           
1 56332U 23058R   25134.52828251 -.00000644  00000+0 -45569-4 0  9993
2 56332  97.6536 136.5817 0002122  76.9181 283.2280 15.01244140113245
STARLINK-5553           
1 56333U 23058S   25134.58197058  .00000439  00000+0  38726-4 0  9991
2 56333  97.6543 136.6593 0000368 119.7539 240.3722 15.01259625113259
STARLINK-5548           
1 56334U 23058T   25134.51901058  .00004154  00000+0  32778-3 0  9996
2 56334  97.6537 136.5897 0001493 100.8490 259.2903 15.01265794113249
STARLINK-5559           
1 56335U 23058U   25134.57664427 -.00000137  00000+0 -60397-5 0  9998
2 56335  97.6547 136.6641 0001888 165.6739 194.4539 15.01260024113259
STARLINK-5562           
1 56336U 23058V   25134.52086174 -.00000210  00000+0 -11783-4 0  9997
2 56336  97.6543 136.5873 0001471 102.3686 257.7703 15.01259600113242
STARLINK-5561           
1 56337U 23058W   25134.57849682 -.00000389  00000+0 -25717-4 0  9993
2 56337  97.6545 136.6624 0002198 165.9619 194.1666 15.01258571112762
STARLINK-5554           
1 56338U 23058X   25134.58009209 -.00001877  00000+0 -14158-3 0  9997
2 56338  97.6546 136.6610 0001438 171.5971 188.5277 15.01252315113259
STARLINK-5552           
1 56339U 23058Y   25134.57269768 -.00000127  00000+0 -52569-5 0  9992
2 56339  97.6552 136.6680 0002709 158.7054 201.4283 15.01258534113256
STARLINK-5540           
1 56340U 23058Z   25134.57825298 -.00000393  00000+0 -25976-4 0  9996
2 56340  97.6544 136.6626 0002154 165.3271 194.8017 15.01257726113250
STARLINK-5543           
1 56341U 23058AA  25134.57639923 -.00000252  00000+0 -15032-4 0  9991
2 56341  97.6547 136.6649 0001886 166.7026 193.4249 15.01258759113252
